{"type": "FeatureCollection", "features": [ {"type": "Feature", "properties": {"norad_id": 31195, "name": "FENGYUN 1C DEB", "group": "fengyun-1c-debris", "lat": -49.359926350611765, "lon": -155.97691794281803, "alt_km": 871.7830773602973, "timestamp": "2025-12-27T11:23:20.178443+00:00", "meta": {"OBJECT_NAME": "FENGYUN 1C DEB", "OBJECT_ID": "1999-025BJZ", "EPOCH": "2025-12-22T07:30:58.600800", "MEAN_MOTION": 14.07984939, "ECCENTRICITY": 0.01723215, "INCLINATION": 98.778, "RA_OF_ASC_NODE": 29.3728, "ARG_OF_PERICENTER": 154.2351, "MEAN_ANOMALY": 206.7529, "EPHEMERIS_TYPE": 0, "CLASSIFICATION_TYPE": "U", "NORAD_CAT_ID": 31195, "ELEMENT_SET_NO": 999, "REV_AT_EPOCH": 96233, "BSTAR": 0.00023249282, "MEAN_MOTION_DOT": 4.11e-06, "MEAN_MOTION_DDOT": 0}, "tle": {"line1": "1 31195U 99025BJZ 25356.31317825  .00000411  00000+0  23249-3 0  9993", "line2": "2 31195  98.7780  29.3728 0172321 154.2351 206.7529 14.07984939962336"}}, "geometry": {"type": "Point", "coordinates": [-155.97691794281803, -49.359926350611765]}}, {"type": "Feature", "properties": {"norad_id": 31196, "name": "FENGYUN 1C DEB", "group": "fengyun-1c-debris", "lat": 19.2202807767868, "lon": 11.29127741167475, "alt_km": 842.9620434554572, "timestamp": "2025-12-27T11:23:20.178453+00:00", "meta": {"OBJECT_NAME": "FENGYUN 1C DEB", "OBJECT_ID": "1999-025BKA", "EPOCH": "2025-12-20T07:28:00.268608", "MEAN_MOTION": 14.25476414, "ECCENTRICITY": 0.00582224, "INCLINATION": 98.5261, "RA_OF_ASC_NODE": 7.3249, "ARG_OF_PERICENTER": 189.9584, "MEAN_ANOMALY": 170.0447, "EPHEMERIS_TYPE": 0, "CLASSIFICATION_TYPE": "U", "NORAD_CAT_ID": 31196, "ELEMENT_SET_NO": 999, "REV_AT_EPOCH": 63603, "BSTAR": 0.00037193208, "MEAN_MOTION_DOT": 8.52e-06, "MEAN_MOTION_DDOT": 0}, "tle": {"line1": "1 31196U 99025BKA 25354.31111422  .00000852  00000+0  37193-3 0  9999", "line2": "2 31196  98.5261   7.3249 0058222 189.9584 170.0447 14.25476414636030"}}, "geometry": {"type": "Point", "coordinates": [11.29127741167475, 19.2202807767868]}}, {"type": "Feature", "properties": {"norad_id": 31198, "name": "FENGYUN 1C DEB", "group": "fengyun-1c-debris", "lat": -81.05761366924679, "lon": 178.32012462099576, "alt_km": 870.4787053301288, "timestamp": "2025-12-27T11:23:20.178463+00:00", "meta": {"OBJECT_NAME": "FENGYUN 1C DEB", "OBJECT_ID": "1999-025BKC", "EPOCH": "2025-12-25T12:39:52.961184", "MEAN_MOTION": 13.75524314, "ECCENTRICITY": 0.02033, "INCLINATION": 98.6122, "RA_OF_ASC_NODE": 102.1748, "ARG_OF_PERICENTER": 317.1251, "MEAN_ANOMALY": 41.4202, "EPHEMERIS_TYPE": 0, "CLASSIFICATION_TYPE": "U", "NORAD_CAT_ID": 31198, "ELEMENT_SET_NO": 999, "REV_AT_EPOCH": 62929, "BSTAR": 0.00011761, "MEAN_MOTION_DOT": 9.2e-07, "MEAN_MOTION_DDOT": 0}, "tle": {"line1": "1 31198U 99025BKC 25359.52769631  .00000092  00000+0  11761-3 0  9999", "line2": "2 31198  98.6122 102.1748 0203300 317.1251  41.4202 13.75524314629299"}}, "geometry": {"type": "Point", "coordinates": [178.32012462099576, -81.05761366924679]}}, {"type": "Feature", "properties": {"norad_id": 31199, "name": "FENGYUN 1C DEB", "group": "fengyun-1c-debris", "lat": 80.22565324691368, "lon": -79.1445399824817, "alt_km": 882.4807482915239, "timestamp": "2025-12-27T11:23:20.178472+00:00", "meta": {"OBJECT_NAME": "FENGYUN 1C DEB", "OBJECT_ID": "1999-025BKD", "EPOCH": "2025-12-27T04:27:37.154016", "MEAN_MOTION": 14.09997755, "ECCENTRICITY": 0.0063583, "INCLINATION": 98.716, "RA_OF_ASC_NODE": 343.5109, "ARG_OF_PERICENTER": 218.2112, "MEAN_ANOMALY": 203.3288, "EPHEMERIS_TYPE": 0, "CLASSIFICATION_TYPE": "U", "NORAD_CAT_ID": 31199, "ELEMENT_SET_NO": 999, "REV_AT_EPOCH": 96363, "BSTAR": 0.00025634, "MEAN_MOTION_DOT": 4.18e-06, "MEAN_MOTION_DDOT": 0}, "tle": {"line1": "1 31199U 99025BKD 25361.18584669  .00000418  00000+0  25634-3 0  9997", "line2": "2 31199  98.7160 343.5109 0063583 218.2112 203.3288 14.09997755963632"}}, "geometry": {"type": "Point", "coordinates": [-79.1445399824817, 80.22565324691368]}}, {"type": "Feature", "properties": {"norad_id": 31201, "name": "FENGYUN 1C DEB", "group": "fengyun-1c-debris", "lat": -12.411025557001823, "lon": 40.98961116832562, "alt_km": 821.8042347582777, "timestamp": "2025-12-27T11:23:20.178483+00:00", "meta": {"OBJECT_NAME": "FENGYUN 1C DEB", "OBJECT_ID": "1999-025BKF", "EPOCH": "2025-12-27T04:23:49.777728", "MEAN_MOTION": 14.35248267, "ECCENTRICITY": 0.014188, "INCLINATION": 99.0015, "RA_OF_ASC_NODE": 222.6849, "ARG_OF_PERICENTER": 309.2136, "MEAN_ANOMALY": 180.3178, "EPHEMERIS_TYPE": 0, "CLASSIFICATION_TYPE": "U", "NORAD_CAT_ID": 31201, "ELEMENT_SET_NO": 999, "REV_AT_EPOCH": 97458, "BSTAR": 0.0011369, "MEAN_MOTION_DOT": 3.596e-05, "MEAN_MOTION_DDOT": 0}, "tle": {"line1": "1 31201U 99025BKF 25361.18321502  .00003596  00000+0  11369-2 0  9995", "line2": "2 31201  99.0015 222.6849 0141880 309.2136 180.3178 14.35248267974585"}}, "geometry": {"type": "Point", "coordinates": [40.98961116832562, -12.411025557001823]}}, {"type": "Feature", "properties": {"norad_id": 31202, "name": "FENGYUN 1C DEB", "group": "fengyun-1c-debris", "lat": 55.2324563646893, "lon": 34.57890816432467, "alt_km": 595.5847403350381, "timestamp": "2025-12-27T11:23:20.178492+00:00", "meta": {"OBJECT_NAME": "FENGYUN 1C DEB", "OBJECT_ID": "1999-025BKG", "EPOCH": "2025-12-25T22:29:25.279296", "MEAN_MOTION": 14.84281886, "ECCENTRICITY": 0.0069123, "INCLINATION": 96.5713, "RA_OF_ASC_NODE": 42.8699, "ARG_OF_PERICENTER": 133.3453, "MEAN_ANOMALY": 353.1903, "EPHEMERIS_TYPE": 0, "CLASSIFICATION_TYPE": "U", "NORAD_CAT_ID": 31202, "ELEMENT_SET_NO": 999, "REV_AT_EPOCH": 99350, "BSTAR": 0.00082142, "MEAN_MOTION_DOT": 7.146e-05, "MEAN_MOTION_DDOT": 0}, "tle": {"line1": "1 31202U 99025BKG 25359.93709814  .00007146  00000+0  82142-3 0  9995", "line2": "2 31202  96.5713  42.8699 0069123 133.3453 353.1903 14.84281886993502"}}, "geometry": {"type": "Point", "coordinates": [34.57890816432467, 55.2324563646893]}}, {"type": "Feature", "properties": {"norad_id": 31205, "name": "FENGYUN 1C DEB", "group": "fengyun-1c-debris", "lat": 44.104240316102995, "lon": 86.3008210538478, "alt_km": 847.4135847800562, "timestamp": "2025-12-27T11:23:20.178502+00:00", "meta": {"OBJECT_NAME": "FENGYUN 1C DEB", "OBJECT_ID": "1999-025BKK", "EPOCH": "2025-12-25T17:00:52.664832", "MEAN_MOTION": 14.23968458, "ECCENTRICITY": 0.01624056, "INCLINATION": 99.2283, "RA_OF_ASC_NODE": 93.5137, "ARG_OF_PERICENTER": 160.4594, "MEAN_ANOMALY": 200.2906, "EPHEMERIS_TYPE": 0, "CLASSIFICATION_TYPE": "U", "NORAD_CAT_ID": 31205, "ELEMENT_SET_NO": 999, "REV_AT_EPOCH": 97395, "BSTAR": 0.00016011573, "MEAN_MOTION_DOT": 3.71e-06, "MEAN_MOTION_DDOT": 0}, "tle": {"line1": "1 31205U 99025BKK 25359.70894288  .00000371  00000+0  16012-3 0  9999", "line2": "2 31205  99.2283  93.5137 0162405 160.4594 200.2906 14.23968458973953"}}, "geometry": {"type": "Point", "coordinates": [86.3008210538478, 44.104240316102995]}}, {"type": "Feature", "properties": {"norad_id": 31206, "name": "FENGYUN 1C DEB", "group": "fengyun-1c-debris", "lat": -44.006827459036636, "lon": 81.24354808225738, "alt_km": 766.4155565943693, "timestamp": "2025-12-27T11:23:20.178512+00:00", "meta": {"OBJECT_NAME": "FENGYUN 1C DEB", "OBJECT_ID": "1999-025BKL", "EPOCH": "2025-12-27T00:20:27.873600", "MEAN_MOTION": 14.40569422, "ECCENTRICITY": 0.0077004, "INCLINATION": 98.8439, "RA_OF_ASC_NODE": 269.4173, "ARG_OF_PERICENTER": 319.686, "MEAN_ANOMALY": 39.8634, "EPHEMERIS_TYPE": 0, "CLASSIFICATION_TYPE": "U", "NORAD_CAT_ID": 31206, "ELEMENT_SET_NO": 999, "REV_AT_EPOCH": 98051, "BSTAR": 0.00092742, "MEAN_MOTION_DOT": 3.012e-05, "MEAN_MOTION_DDOT": 0}, "tle": {"line1": "1 31206U 99025BKL 25361.01421150  .00003012  00000+0  92742-3 0  9990", "line2": "2 31206  98.8439 269.4173 0077004 319.6860  39.8634 14.40569422980511"}}, "geometry": {"type": "Point", "coordinates": [81.24354808225738, -44.006827459036636]}}, {"type": "Feature", "properties": {"norad_id": 31208, "name": "FENGYUN 1C DEB", "group": "fengyun-1c-debris", "lat": 5.6152598159383365, "lon": -32.17964567958483, "alt_km": 679.4958742580848, "timestamp": "2025-12-27T11:23:20.178522+00:00", "meta": {"OBJECT_NAME": "FENGYUN 1C DEB", "OBJECT_ID": "1999-025BKN", "EPOCH": "2025-12-13T08:25:55.088256", "MEAN_MOTION": 14.61862471, "ECCENTRICITY": 0.00160842, "INCLINATION": 99.2396, "RA_OF_ASC_NODE": 131.1249, "ARG_OF_PERICENTER": 265.8015, "MEAN_ANOMALY": 126.2818, "EPHEMERIS_TYPE": 0, "CLASSIFICATION_TYPE": "U", "NORAD_CAT_ID": 31208, "ELEMENT_SET_NO": 999, "REV_AT_EPOCH": 70488, "BSTAR": 0.0052061327, "MEAN_MOTION_DOT": 0.00026113, "MEAN_MOTION_DDOT": 0}, "tle": {"line1": "1 31208U 99025BKN 25347.35133204  .00026113  00000+0  52061-2 0  9999", "line2": "2 31208  99.2396 131.1249 0016084 265.8015 126.2818 14.61862471704886"}}, "geometry": {"type": "Point", "coordinates": [-32.17964567958483, 5.6152598159383365]}}, {"type": "Feature", "properties": {"norad_id": 31209, "name": "FENGYUN 1C DEB", "group": "fengyun-1c-debris", "lat": 68.94684829885988, "lon": -58.83764363919498, "alt_km": 755.4483815946205, "timestamp": "2025-12-27T11:23:20.178532+00:00", "meta": {"OBJECT_NAME": "FENGYUN 1C DEB", "OBJECT_ID": "1999-025BKP", "EPOCH": "2025-12-26T13:15:39.938976", "MEAN_MOTION": 14.43705926, "ECCENTRICITY": 0.0022605, "INCLINATION": 98.8829, "RA_OF_ASC_NODE": 96.2289, "ARG_OF_PERICENTER": 299.7729, "MEAN_ANOMALY": 60.1212, "EPHEMERIS_TYPE": 0, "CLASSIFICATION_TYPE": "U", "NORAD_CAT_ID": 31209, "ELEMENT_SET_NO": 999, "REV_AT_EPOCH": 65007, "BSTAR": 0.0027564, "MEAN_MOTION_DOT": 9.358e-05, "MEAN_MOTION_DDOT": 0}, "tle": {"line1": "1 31209U 99025BKP 25360.55254559  .00009358  00000+0  27564-2 0  9996", "line2": "2 31209  98.8829  96.2289 0022605 299.7729  60.1212 14.43705926650078"}}, "geometry": {"type": "Point", "coordinates": [-58.83764363919498, 68.94684829885988]}}]}